start=new Date('2022-03-29T00:00:00.000Z').valueOf();
sats=[{"TLE_LINE2":"2 48399  53.0552 334.0877 0001671  55.9190 304.1957 15.06412465 51202","EPOCH":"2022-03-28T21:31:22.924704","MEAN_MOTION_DDOT":"0.0000000000000","REF_FRAME":"TEME","OBJECT_ID":"2021-038AY","MEAN_MOTION":"15.06412465","MEAN_MOTION_DOT":"0.00006767","EPHEMERIS_TYPE":"0","SEMIMAJOR_AXIS":"6925.310","MEAN_ANOMALY":"304.1957","SITE":"AFETR","COUNTRY_CODE":"US","BSTAR":"0.00047257000000","MEAN_ELEMENT_THEORY":"SGP4","APOAPSIS":"548.333","RA_OF_ASC_NODE":"334.0877","CENTER_NAME":"EARTH","GP_ID":"199942483","PERIOD":"95.591","LAUNCH_DATE":"2021-05-04","ECCENTRICITY":"0.00016710","REV_AT_EPOCH":"5120","TLE_LINE1":"1 48399U 21038AY  22087.89679311  .00006767  00000-0  47257-3 0  9994","INCLINATION":"53.0552","OBJECT_NAME":"STARLINK-2587","PERIAPSIS":"546.018","ELEMENT_SET_NO":"999","RCS_SIZE":"LARGE","NORAD_CAT_ID":"48399","CLASSIFICATION_TYPE":"U","DECAY_DATE":null,"ARG_OF_PERICENTER":"55.9190","OBJECT_TYPE":"PAYLOAD","TIME_SYSTEM":"UTC","FILE":"3378342"},{"MEAN_MOTION_DOT":"0.00004732","MEAN_MOTION":"15.06412323","OBJECT_ID":"2021-038AZ","REF_FRAME":"TEME","MEAN_MOTION_DDOT":"0.0000000000000","EPOCH":"2022-03-28T21:26:04.199424","TLE_LINE2":"2 48400  53.0545 334.1090 0001752  55.2131 304.9023 15.06412323 49991","GP_ID":"199942733","CENTER_NAME":"EARTH","RA_OF_ASC_NODE":"334.1090","APOAPSIS":"548.389","MEAN_ELEMENT_THEORY":"SGP4","COUNTRY_CODE":"US","BSTAR":"0.00033625000000","SITE":"AFETR","MEAN_ANOMALY":"304.9023","SEMIMAJOR_AXIS":"6925.311","EPHEMERIS_TYPE":"0","ELEMENT_SET_NO":"999","PERIAPSIS":"545.962","OBJECT_NAME":"STARLINK-2576","INCLINATION":"53.0545","TLE_LINE1":"1 48400U 21038AZ  22087.89310416  .00004732  00000-0  33625-3 0  9999","REV_AT_EPOCH":"4999","ECCENTRICITY":"0.00017520","LAUNCH_DATE":"2021-05-04","PERIOD":"95.591","FILE":"3378342","TIME_SYSTEM":"UTC","OBJECT_TYPE":"PAYLOAD","ARG_OF_PERICENTER":"55.2131","DECAY_DATE":null,"CLASSIFICATION_TYPE":"U","RCS_SIZE":"LARGE","NORAD_CAT_ID":"48400"},{"SEMIMAJOR_AXIS":"6925.330","EPHEMERIS_TYPE":"0","BSTAR":"0.00021510000000","COUNTRY_CODE":"US","SITE":"AFETR","MEAN_ANOMALY":"303.9430","APOAPSIS":"548.383","MEAN_ELEMENT_THEORY":"SGP4","GP_ID":"199943485","CENTER_NAME":"EARTH","RA_OF_ASC_NODE":"333.9429","EPOCH":"2022-03-28T22:17:47.513760","TLE_LINE2":"2 48401  53.0563 333.9429 0001716  56.1722 303.9430 15.06406169 49993","REF_FRAME":"TEME","MEAN_MOTION_DDOT":"0.0000000000000","OBJECT_ID":"2021-038BA","MEAN_MOTION":"15.06406169","MEAN_MOTION_DOT":"0.00002924","OBJECT_TYPE":"PAYLOAD","DECAY_DATE":null,"ARG_OF_PERICENTER":"56.1722","CLASSIFICATION_TYPE":"U","RCS_SIZE":"LARGE","NORAD_CAT_ID":"48401","TIME_SYSTEM":"UTC","FILE":"3378342","LAUNCH_DATE":"2021-05-04","PERIOD":"95.592","TLE_LINE1":"1 48401U 21038BA  22087.92902215  .00002924  00000-0  21510-3 0  9999","REV_AT_EPOCH":"4999","ECCENTRICITY":"0.00017160","PERIAPSIS":"546.006","OBJECT_NAME":"STARLINK-2571","INCLINATION":"53.0563","ELEMENT_SET_NO":"999"},{"PERIAPSIS":"546.001","OBJECT_NAME":"STARLINK-2560","INCLINATION":"53.0553","ELEMENT_SET_NO":"999","LAUNCH_DATE":"2021-05-04","PERIOD":"95.591","TLE_LINE1":"1 48402U 21038BB  22087.88941856  .00006238  00000-0  43709-3 0  9995","REV_AT_EPOCH":"4999","ECCENTRICITY":"0.00016780","TIME_SYSTEM":"UTC","FILE":"3378342","OBJECT_TYPE":"PAYLOAD","DECAY_DATE":null,"ARG_OF_PERICENTER":"52.1891","CLASSIFICATION_TYPE":"U","NORAD_CAT_ID":"48402","RCS_SIZE":"LARGE","OBJECT_ID":"2021-038BB","MEAN_MOTION":"15.06416519","MEAN_MOTION_DOT":"0.00006238","EPOCH":"2022-03-28T21:20:45.763584","TLE_LINE2":"2 48402  53.0553 334.1189 0001678  52.1891 307.9249 15.06416519 49991","REF_FRAME":"TEME","MEAN_MOTION_DDOT":"0.0000000000000","APOAPSIS":"548.325","MEAN_ELEMENT_THEORY":"SGP4","GP_ID":"199944236","CENTER_NAME":"EARTH","RA_OF_ASC_NODE":"334.1189","SEMIMAJOR_AXIS":"6925.298","EPHEMERIS_TYPE":"0","BSTAR":"0.00043709000000","COUNTRY_CODE":"US","SITE":"AFETR","MEAN_ANOMALY":"307.9249"},{"EPOCH":"2022-03-28T21:15:27.364896","TLE_LINE2":"2 48403  53.0567 334.1252 0001676  66.5900 293.5265 15.06415289 49997","MEAN_MOTION_DDOT":"0.0000000000000","REF_FRAME":"TEME","OBJECT_ID":"2021-038BC","MEAN_MOTION_DOT":"0.00005562","MEAN_MOTION":"15.06415289","SEMIMAJOR_AXIS":"6925.302","EPHEMERIS_TYPE":"0","SITE":"AFETR","BSTAR":"0.00039182000000","COUNTRY_CODE":"US","MEAN_ANOMALY":"293.5265","MEAN_ELEMENT_THEORY":"SGP4","APOAPSIS":"548.327","CENTER_NAME":"EARTH","GP_ID":"199942984","RA_OF_ASC_NODE":"334.1252","LAUNCH_DATE":"2021-05-04","PERIOD":"95.591","REV_AT_EPOCH":"4999","TLE_LINE1":"1 48403U 21038BC  22087.88573339  .00005562  00000-0  39182-3 0  9992","ECCENTRICITY":"0.00016760","PERIAPSIS":"546.006","INCLINATION":"53.0567","OBJECT_NAME":"STARLINK-2561","ELEMENT_SET_NO":"999","DECAY_DATE":null,"ARG_OF_PERICENTER":"66.5900","OBJECT_TYPE":"PAYLOAD","RCS_SIZE":"LARGE","NORAD_CAT_ID":"48403","CLASSIFICATION_TYPE":"U","TIME_SYSTEM":"UTC","FILE":"3378342"},{"MEAN_MOTION_DOT":"0.00007660","MEAN_MOTION":"15.06417932","OBJECT_ID":"2021-038BD","MEAN_MOTION_DDOT":"0.0000000000000","REF_FRAME":"TEME","TLE_LINE2":"2 48404  53.0553 334.1520 0001472  62.8701 297.2438 15.06417932 49993","EPOCH":"2022-03-28T21:10:08.800320","RA_OF_ASC_NODE":"334.1520","CENTER_NAME":"EARTH","GP_ID":"199943234","MEAN_ELEMENT_THEORY":"SGP4","APOAPSIS":"548.178","MEAN_ANOMALY":"297.2438","SITE":"AFETR","COUNTRY_CODE":"US","BSTAR":"0.00053230000000","EPHEMERIS_TYPE":"0","SEMIMAJOR_AXIS":"6925.294","ELEMENT_SET_NO":"999","INCLINATION":"53.0553","OBJECT_NAME":"STARLINK-2593","PERIAPSIS":"546.139","ECCENTRICITY":"0.00014720","REV_AT_EPOCH":"4999","TLE_LINE1":"1 48404U 21038BD  22087.88204630  .00007660  00000-0  53230-3 0  9999","PERIOD":"95.591","LAUNCH_DATE":"2021-05-04","FILE":"3378342","TIME_SYSTEM":"UTC","RCS_SIZE":"LARGE","NORAD_CAT_ID":"48404","CLASSIFICATION_TYPE":"U","DECAY_DATE":null,"ARG_OF_PERICENTER":"62.8701","OBJECT_TYPE":"PAYLOAD"},{"OBJECT_TYPE":"PAYLOAD","ARG_OF_PERICENTER":"61.6438","DECAY_DATE":null,"CLASSIFICATION_TYPE":"U","RCS_SIZE":"LARGE","NORAD_CAT_ID":"48405","TIME_SYSTEM":"UTC","FILE":"3378342","LAUNCH_DATE":"2021-05-04","PERIOD":"95.592","TLE_LINE1":"1 48405U 21038BE  22087.87836999  .00000256  00000-0  36115-4 0  9996","REV_AT_EPOCH":"4999","ECCENTRICITY":"0.00017190","PERIAPSIS":"546.025","OBJECT_NAME":"STARLINK-2570","INCLINATION":"53.0532","ELEMENT_SET_NO":"999","SEMIMAJOR_AXIS":"6925.351","EPHEMERIS_TYPE":"0","COUNTRY_CODE":"US","BSTAR":"0.00003611500000","SITE":"AFETR","MEAN_ANOMALY":"298.4724","APOAPSIS":"548.406","MEAN_ELEMENT_THEORY":"SGP4","GP_ID":"199943986","CENTER_NAME":"EARTH","RA_OF_ASC_NODE":"334.1721","EPOCH":"2022-03-28T21:04:51.167136","TLE_LINE2":"2 48405  53.0532 334.1721 0001719  61.6438 298.4724 15.06399296 49995","REF_FRAME":"TEME","MEAN_MOTION_DDOT":"0.0000000000000","OBJECT_ID":"2021-038BE","MEAN_MOTION_DOT":"0.00000256","MEAN_MOTION":"15.06399296"},{"OBJECT_ID":"2021-038BF","MEAN_MOTION_DOT":"0.00002063","MEAN_MOTION":"15.06399973","TLE_LINE2":"2 48406  53.0566 334.1816 0001789  54.2851 305.8304 15.06399973 49991","EPOCH":"2022-03-28T20:59:32.627616","MEAN_MOTION_DDOT":"0.0000000000000","REF_FRAME":"TEME","MEAN_ELEMENT_THEORY":"SGP4","APOAPSIS":"548.453","RA_OF_ASC_NODE":"334.1816","CENTER_NAME":"EARTH","GP_ID":"199943736","EPHEMERIS_TYPE":"0","SEMIMAJOR_AXIS":"6925.349","MEAN_ANOMALY":"305.8304","SITE":"AFETR","BSTAR":"0.00015735000000","COUNTRY_CODE":"US","INCLINATION":"53.0566","OBJECT_NAME":"STARLINK-2568","PERIAPSIS":"545.975","ELEMENT_SET_NO":"999","PERIOD":"95.592","LAUNCH_DATE":"2021-05-04","ECCENTRICITY":"0.00017890","REV_AT_EPOCH":"4999","TLE_LINE1":"1 48406U 21038BF  22087.87468319  .00002063  00000-0  15735-3 0  9996","TIME_SYSTEM":"UTC","FILE":"3378342","NORAD_CAT_ID":"48406","RCS_SIZE":"LARGE","CLASSIFICATION_TYPE":"U","ARG_OF_PERICENTER":"54.2851","DECAY_DATE":null,"OBJECT_TYPE":"PAYLOAD"},{"BSTAR":"0.00015752000000","COUNTRY_CODE":"US","SITE":"AFETR","MEAN_ANOMALY":"299.1976","SEMIMAJOR_AXIS":"6925.325","EPHEMERIS_TYPE":"0","GP_ID":"199942484","CENTER_NAME":"EARTH","RA_OF_ASC_NODE":"334.1834","APOAPSIS":"548.316","MEAN_ELEMENT_THEORY":"SGP4","REF_FRAME":"TEME","MEAN_MOTION_DDOT":"0.0000000000000","EPOCH":"2022-03-28T20:54:14.017248","TLE_LINE2":"2 48407  53.0546 334.1834 0001625  60.9176 299.1976 15.06407551 49984","MEAN_MOTION":"15.06407551","MEAN_MOTION_DOT":"0.00002066","OBJECT_ID":"2021-038BG","OBJECT_TYPE":"PAYLOAD","DECAY_DATE":null,"ARG_OF_PERICENTER":"60.9176","CLASSIFICATION_TYPE":"U","NORAD_CAT_ID":"48407","RCS_SIZE":"LARGE","FILE":"3378342","TIME_SYSTEM":"UTC","TLE_LINE1":"1 48407U 21038BG  22087.87099557  .00002066  00000-0  15752-3 0  9993","REV_AT_EPOCH":"4998","ECCENTRICITY":"0.00016250","LAUNCH_DATE":"2021-05-04","PERIOD":"95.592","ELEMENT_SET_NO":"999","PERIAPSIS":"546.065","OBJECT_NAME":"STARLINK-2595","INCLINATION":"53.0546"},{"EPHEMERIS_TYPE":"0","SEMIMAJOR_AXIS":"6925.302","MEAN_ANOMALY":"281.3166","COUNTRY_CODE":"US","BSTAR":"0.00042929000000","SITE":"AFETR","APOAPSIS":"548.134","MEAN_ELEMENT_THEORY":"SGP4","RA_OF_ASC_NODE":"333.9087","GP_ID":"199942734","CENTER_NAME":"EARTH","TLE_LINE2":"2 48408  53.0559 333.9087 0001397  78.7980 281.3166 15.06415204 49991","EPOCH":"2022-03-28T22:24:27.404064","REF_FRAME":"TEME","MEAN_MOTION_DDOT":"0.0000000000000","OBJECT_ID":"2021-038BH","MEAN_MOTION_DOT":"0.00006121","MEAN_MOTION":"15.06415204","CLASSIFICATION_TYPE":"U","NORAD_CAT_ID":"48408","RCS_SIZE":"LARGE","OBJECT_TYPE":"PAYLOAD","DECAY_DATE":null,"ARG_OF_PERICENTER":"78.7980","TIME_SYSTEM":"UTC","FILE":"3378342","PERIOD":"95.591","LAUNCH_DATE":"2021-05-04","ECCENTRICITY":"0.00013970","TLE_LINE1":"1 48408U 21038BH  22087.93365051  .00006121  00000-0  42929-3 0  9998","REV_AT_EPOCH":"4999","OBJECT_NAME":"STARLINK-2592","INCLINATION":"53.0559","PERIAPSIS":"546.199","ELEMENT_SET_NO":"999"}];
